{
  "type": "FeatureCollection",
  "features": [
    {"type":"Feature","properties":{"id":"demo-risk-001","name":"High Runoff Risk","risk_level":"high","risk_score":88,"conditions":{"slope_deg":7,"runoff_proxy":"high","vegetation_condition":"sparse","terrain_soil_proxy":"undulating loam","distance_to_drainage_m":180},"data_status":"demo","provenance":{"source_type":"curated_demo","source_name":"JalDrishti MVP","method":"illustrative rule-input dataset"}},"geometry":{"type":"Polygon","coordinates":[[[73.001,19.008],[73.005,19.008],[73.006,19.011],[73.001,19.011],[73.001,19.008]]]}},
    {"type":"Feature","properties":{"id":"demo-risk-002","name":"Moderate Erosion Risk","risk_level":"medium","risk_score":62,"conditions":{"slope_deg":4,"runoff_proxy":"medium","vegetation_condition":"moderate","terrain_soil_proxy":"clay loam","distance_to_drainage_m":320},"data_status":"demo","provenance":{"source_type":"curated_demo","source_name":"JalDrishti MVP","method":"illustrative rule-input dataset"}},"geometry":{"type":"Polygon","coordinates":[[[73.010,19.001],[73.014,19.001],[73.014,19.004],[73.011,19.005],[73.010,19.001]]]}},
    {"type":"Feature","properties":{"id":"demo-risk-003","name":"Low Residual Risk","risk_level":"low","risk_score":34,"conditions":{"slope_deg":2,"runoff_proxy":"low","vegetation_condition":"dense","terrain_soil_proxy":"alluvial soil","distance_to_drainage_m":120},"data_status":"demo","provenance":{"source_type":"curated_demo","source_name":"JalDrishti MVP","method":"illustrative rule-input dataset"}},"geometry":{"type":"Polygon","coordinates":[[[73.006,19.003],[73.009,19.003],[73.009,19.005],[73.006,19.005],[73.006,19.003]]]}}
  ]
}
